50P/Arend,e,19.0993,355.1469,49.3257,4.087805,0.1192529,0.52981094,32.5939,02/10.0/2025,2000,g  9.5,6.0
# From MPEC 2025-CE3
60P/Tsuchinshan,e,3.5797,267.3974,216.9344,3.530116,0.1486006,0.53386384,336.1286,02/10.0/2025,2000,g 11.5,6.0
# From MPEC 2025-CE3
62P/Tsuchinshan,e,4.7373,68.6663,47.3223,3.370685,0.1592674,0.62469734,65.7499,02/10.0/2025,2000,g  8.0,10.0
# From MPEC 2025-CE3
74P/Smirnova-Chernykh,e,6.2993,53.5034,79.6414,4.986231,0.0885208,0.03633308,302.4382,02/10.0/2025,2000,g  5.0,6.0
# From MPEC 2025-CE3
88P/Howell,e,4.3820,56.6681,235.8890,3.108083,0.1798726,0.56318419,287.7235,02/10.0/2025,2000,g 11.0,6.0
# From MPEC 2025-CE3
89P/Russell,e,12.0721,41.3443,250.4080,3.750605,0.1356913,0.40755029,43.4759,02/10.0/2025,2000,g 11.5,6.0
# From MPEC 2025-CE3
103P/Hartley,e,13.6095,219.7531,181.3227,3.475365,0.1521260,0.69360381,74.0133,02/10.0/2025,2000,g  8.5,8.0
# From MPEC 2025-CE3
130P/McNaught-Hughes,e,6.0631,70.1802,246.1979,3.383793,0.1583428,0.46105150,47.6562,02/10.0/2025,2000,g 10.0,6.0
# From MPEC 2025-CE3
136P/Mueller,e,9.4275,137.4229,225.2955,4.185121,0.1151177,0.29311726,4.3337,02/10.0/2025,2000,g 11.0,4.0
# From MPEC 2025-CE3
146P/Shoemaker-LINEAR,e,23.1202,53.3705,317.0691,4.027434,0.1219443,0.64758373,22.9942,02/10.0/2025,2000,g 15.0,4.0
# From MPEC 2025-CE3
154P/Brewington,e,17.6359,342.9991,47.9469,4.797963,0.0937818,0.67637564,22.6717,02/10.0/2025,2000,g  2.5,12.0
# From MPEC 2025-CE3
158P/Kowal-LINEAR,e,7.4075,124.8125,226.1399,5.654079,0.0733097,0.11807540,67.1809,02/10.0/2025,2000,g  9.0,4.0
# From MPEC 2025-CE3
170P/Christensen,e,10.1255,142.6452,224.8453,4.196983,0.1146300,0.30523299,76.3263,02/10.0/2025,2000,g 12.0,4.0
# From MPEC 2025-CE3
172P/Yeung,e,11.2239,30.8821,208.9199,4.222685,0.1135850,0.20475603,329.8235,02/10.0/2025,2000,g 13.0,4.0
# From MPEC 2025-CE3
195P/Hill,e,36.4194,243.1055,250.5310,6.450171,0.0601655,0.31151899,349.4068,02/10.0/2025,2000,g  8.5,4.0
# From MPEC 2025-CE3
208P/McMillan,e,4.4123,36.3356,310.7154,4.038790,0.1214303,0.37387418,20.6386,02/10.0/2025,2000,g 12.5,4.0
# From MPEC 2025-CE3
217P/LINEAR,e,12.8654,125.3716,247.0351,3.944542,0.1258083,0.68909652,346.9232,02/10.0/2025,2000,g 12.0,4.0
# From MPEC 2025-CE3
219P/LINEAR,e,11.5341,230.9491,107.7915,3.652131,0.1412162,0.35497518,51.0586,02/10.0/2025,2000,g 11.0,4.0
# From MPEC 2025-CE3
229P/Gibbs,e,26.0973,157.8839,224.2104,3.922917,0.1268500,0.37791955,356.9853,02/10.0/2025,2000,g 13.0,4.0
# From MPEC 2025-CE3
235P/LINEAR,e,9.8130,200.2109,352.0700,3.449553,0.1538366,0.42644940,311.4757,02/10.0/2025,2000,g 12.0,4.0
# From MPEC 2025-CE3
237P/LINEAR,e,14.0160,245.3544,25.4758,3.515214,0.1495466,0.43322519,95.3062,02/10.0/2025,2000,g 14.5,2.0
# From MPEC 2025-CE3
242P/Spahr,e,32.4267,180.2862,244.9250,5.537258,0.0756418,0.28274770,3.6891,02/10.0/2025,2000,g  8.0,4.0
# From MPEC 2025-CE3
253P/PANSTARRS,e,4.9440,146.8578,230.8329,3.463717,0.1528940,0.41484989,17.1228,02/10.0/2025,2000,g 14.5,4.0
# From MPEC 2025-CE3
268P/Bernardi,e,15.6612,125.6320,0.0130,4.591736,0.1001702,0.47456971,5.3619,02/10.0/2025,2000,g 14.0,4.0
# From MPEC 2025-CE3
276P/Vorobjov,e,14.7934,211.3239,199.2785,5.355977,0.0795145,0.27208623,4.8680,02/10.0/2025,2000,g 11.5,4.0
# From MPEC 2025-CE3
294P/LINEAR,e,17.7403,309.6053,237.5676,3.191679,0.1728524,0.60111555,328.5107,02/10.0/2025,2000,g 15.5,4.0
# From MPEC 2025-CE3
305P/Skiff,e,11.6715,240.1046,147.4205,4.637373,0.0986952,0.69409011,8.3739,02/10.0/2025,2000,g 18.0,4.0
# From MPEC 2025-CE3
323P/SOHO,e,5.2104,323.9530,353.3211,2.440227,0.2585584,0.98344276,0.0000,03/14.2305/2025,2000,g 20.0,4.0
# From MPEC 2025-CE3
333P/LINEAR,e,132.0224,115.7064,26.0172,4.220293,0.1136816,0.73628747,8.2649,02/10.0/2025,2000,g 15.0,4.0
# From MPEC 2025-CE3
338P/McNaught,e,25.3793,9.7787,4.6171,3.895372,0.1281978,0.41265595,24.4436,02/10.0/2025,2000,g 12.0,4.0
# From MPEC 2025-CE3
382P/Larson,e,8.2611,170.6725,162.2337,5.900264,0.0687697,0.26701711,82.0991,02/10.0/2025,2000,g  8.0,4.0
# From MPEC 2025-CE3
384P/Kowalski,e,7.2836,354.1902,37.7119,2.898091,0.1997727,0.61629762,28.7404,02/10.0/2025,2000,g 19.5,4.0
# From MPEC 2025-CE3
404P/Bressi,e,9.8042,260.0417,169.1000,4.720609,0.0960964,0.12454544,44.8052,02/10.0/2025,2000,g 10.0,4.0
# From MPEC 2025-CE3
408P/Novichonok-Gerke,e,19.3533,189.4497,226.6699,4.745279,0.0953480,0.26852700,81.8035,02/10.0/2025,2000,g 11.0,4.0
# From MPEC 2025-CE3
450P/LONEOS,e,10.6144,124.4809,22.5636,7.956246,0.0439179,0.31392159,328.6439,02/10.0/2025,2000,g  6.5,4.0
# From MPEC 2025-CE3
456P/PANSTARRS,e,16.9670,243.1526,233.0398,3.171641,0.1744930,0.11647204,348.8115,02/10.0/2025,2000,g 13.5,4.0
# From MPEC 2025-CE3
470P/PANSTARRS,e,8.8443,246.1735,151.7483,4.466498,0.1044127,0.38957210,43.9562,02/10.0/2025,2000,g 15.5,4.0
# From MPEC 2025-CE3
472P/NEAT-LINEAR,e,10.8245,205.8965,218.8780,7.799837,0.0452455,0.56556943,9.5179,02/10.0/2025,2000,g 10.5,4.0
# From MPEC 2025-CE3
476P/PANSTARRS,e,19.0054,57.0530,46.7335,4.777221,0.0943933,0.34619711,10.9953,02/10.0/2025,2000,g 12.5,4.0
# From MPEC 2025-CE3
487P/SidingSpring,e,39.3671,49.2085,0.8575,5.165309,0.0839575,0.64863237,9.4340,02/10.0/2025,2000,g 13.5,4.0
# From MPEC 2025-CE3
492P/LINEAR,e,11.4004,11.3089,40.9930,5.763018,0.0712408,0.69077247,14.5697,02/10.0/2025,2000,g 15.0,4.0
# From MPEC 2025-CE3
496P/Hill,e,14.8146,63.5879,42.2484,6.103201,0.0653684,0.73439398,358.1510,02/10.0/2025,2000,g 14.0,4.0
# From MPC107687
1I/`Oumuamua,h,09/09.4886/2017,122.6778,24.5997,241.6845,1.199252,0.255240,2000,23.0,2.0
# From MPEC 2023-L37
2I/Borisov,h,12/08.5548/2019,44.0527,308.1480,209.1251,3.356633,2.006548,2000,11.0,4.0
